{
  "type": "FeatureCollection",
  "features": [
    {
      "type": "Feature",
      "properties": {
        "norad_id": 58647,
        "name": "TIANMU-1 13",
        "group": "weather",
        "lat": 40.86045362021943,
        "lon": -159.7666303803187,
        "alt_km": 489.15415826682784,
        "timestamp": "2025-12-20T07:33:50.444102+00:00",
        "meta_object_name": "TIANMU-1 13",
        "meta_object_id": "2023-205C",
        "meta_epoch": "2025-12-19T23:04:53.217984",
        "meta_mean_motion": 15.24609466,
        "meta_eccentricity": 0.00062542,
        "meta_inclination": 97.3611,
        "meta_ra_of_asc_node": 13.4654,
        "meta_arg_of_pericenter": 234.8718,
        "meta_mean_anomaly": 125.1934,
        "meta_ephemeris_type": 0,
        "meta_classification_type": "U",
        "meta_norad_cat_id": 58647,
        "meta_element_set_no": 999,
        "meta_rev_at_epoch": 11017,
        "meta_bstar": 0.00018043609,
        "meta_mean_motion_dot": 4.381e-05,
        "meta_mean_motion_ddot": 0,
        "tle_line1": "1 58647U 23205C   25353.96172706  .00004381  00000+0  18044-3 0  9993",
        "tle_line2": "2 58647  97.3611  13.4654 0006254 234.8718 125.1934 15.24609466110170"
      },
      "geometry": {
        "type": "Point",
        "coordinates": [
          -159.7666303803187,
          40.86045362021943
        ]
      }
    },
    {
      "type": "Feature",
      "properties": {
        "norad_id": 58648,
        "name": "TIANMU-1 14",
        "group": "weather",
        "lat": -48.824195941836,
        "lon": -175.33697950757553,
        "alt_km": 494.1913652134954,
        "timestamp": "2025-12-20T07:33:50.444112+00:00",
        "meta_object_name": "TIANMU-1 14",
        "meta_object_id": "2023-205D",
        "meta_epoch": "2025-12-19T22:41:05.762976",
        "meta_mean_motion": 15.24592656,
        "meta_eccentricity": 0.00069909,
        "meta_inclination": 97.3543,
        "meta_ra_of_asc_node": 12.7912,
        "meta_arg_of_pericenter": 240.9269,
        "meta_mean_anomaly": 119.1269,
        "meta_ephemeris_type": 0,
        "meta_classification_type": "U",
        "meta_norad_cat_id": 58648,
        "meta_element_set_no": 999,
        "meta_rev_at_epoch": 11017,
        "meta_bstar": 0.00018715523,
        "meta_mean_motion_dot": 4.545e-05,
        "meta_mean_motion_ddot": 0,
        "tle_line1": "1 58648U 23205D   25353.94520559  .00004545  00000+0  18716-3 0  9993",
        "tle_line2": "2 58648  97.3543  12.7912 0006990 240.9269 119.1269 15.24592656110176"
      },
      "geometry": {
        "type": "Point",
        "coordinates": [
          -175.33697950757553,
          -48.824195941836
        ]
      }
    },
    {
      "type": "Feature",
      "properties": {
        "norad_id": 58660,
        "name": "TIANMU-1 19",
        "group": "weather",
        "lat": -35.60003737567723,
        "lon": -80.03000928417335,
        "alt_km": 485.1936479721053,
        "timestamp": "2025-12-20T07:33:50.444123+00:00",
        "meta_object_name": "TIANMU-1 19",
        "meta_object_id": "2023-208A",
        "meta_epoch": "2025-12-19T22:45:48.479328",
        "meta_mean_motion": 15.27973055,
        "meta_eccentricity": 0.00044347,
        "meta_inclination": 97.4395,
        "meta_ra_of_asc_node": 104.9719,
        "meta_arg_of_pericenter": 221.1774,
        "meta_mean_anomaly": 138.9131,
        "meta_ephemeris_type": 0,
        "meta_classification_type": "U",
        "meta_norad_cat_id": 58660,
        "meta_element_set_no": 999,
        "meta_rev_at_epoch": 10992,
        "meta_bstar": 0.00023378929,
        "meta_mean_motion_dot": 6.307e-05,
        "meta_mean_motion_ddot": 0,
        "tle_line1": "1 58660U 23208A   25353.94847777  .00006307  00000+0  23379-3 0  9993",
        "tle_line2": "2 58660  97.4395 104.9719 0004434 221.1774 138.9131 15.27973055109925"
      },
      "geometry": {
        "type": "Point",
        "coordinates": [
          -80.03000928417335,
          -35.60003737567723
        ]
      }
    },
    {
      "type": "Feature",
      "properties": {
        "norad_id": 58661,
        "name": "TIANMU-1 20",
        "group": "weather",
        "lat": -37.16643011280486,
        "lon": 111.47338989673742,
        "alt_km": 484.6214835049723,
        "timestamp": "2025-12-20T07:33:50.444133+00:00",
        "meta_object_name": "TIANMU-1 20",
        "meta_object_id": "2023-208B",
        "meta_epoch": "2025-12-19T22:18:17.789184",
        "meta_mean_motion": 15.29163428,
        "meta_eccentricity": 0.00065272,
        "meta_inclination": 97.4333,
        "meta_ra_of_asc_node": 105.4075,
        "meta_arg_of_pericenter": 235.5247,
        "meta_mean_anomaly": 124.5377,
        "meta_ephemeris_type": 0,
        "meta_classification_type": "U",
        "meta_norad_cat_id": 58661,
        "meta_element_set_no": 999,
        "meta_rev_at_epoch": 10999,
        "meta_bstar": 0.0002406798,
        "meta_mean_motion_dot": 6.739e-05,
        "meta_mean_motion_ddot": 0,
        "tle_line1": "1 58661U 23208B   25353.92937256  .00006739  00000+0  24068-3 0  9999",
        "tle_line2": "2 58661  97.4333 105.4075 0006527 235.5247 124.5377 15.29163428109995"
      },
      "geometry": {
        "type": "Point",
        "coordinates": [
          111.47338989673742,
          -37.16643011280486
        ]
      }
    },
    {
      "type": "Feature",
      "properties": {
        "norad_id": 58662,
        "name": "TIANMU-1 21",
        "group": "weather",
        "lat": 35.47664933815278,
        "lon": 102.39293893471579,
        "alt_km": 472.5440493293672,
        "timestamp": "2025-12-20T07:33:50.444143+00:00",
        "meta_object_name": "TIANMU-1 21",
        "meta_object_id": "2023-208C",
        "meta_epoch": "2025-12-19T22:00:01.995264",
        "meta_mean_motion": 15.31695559,
        "meta_eccentricity": 0.00061723,
        "meta_inclination": 97.438,
        "meta_ra_of_asc_node": 107.3354,
        "meta_arg_of_pericenter": 229.9387,
        "meta_mean_anomaly": 130.1314,
        "meta_ephemeris_type": 0,
        "meta_classification_type": "U",
        "meta_norad_cat_id": 58662,
        "meta_element_set_no": 999,
        "meta_rev_at_epoch": 11009,
        "meta_bstar": 0.00024955608,
        "meta_mean_motion_dot": 7.563e-05,
        "meta_mean_motion_ddot": 0,
        "tle_line1": "1 58662U 23208C   25353.91668976  .00007563  00000+0  24956-3 0  9991",
        "tle_line2": "2 58662  97.4380 107.3354 0006172 229.9387 130.1314 15.31695559110092"
      },
      "geometry": {
        "type": "Point",
        "coordinates": [
          102.39293893471579,
          35.47664933815278
        ]
      }
    },
    {
      "type": "Feature",
      "properties": {
        "norad_id": 58663,
        "name": "TIANMU-1 22",
        "group": "weather",
        "lat": -30.040310406483577,
        "lon": -78.9398171542123,
        "alt_km": 487.1734696645344,
        "timestamp": "2025-12-20T07:33:50.444153+00:00",
        "meta_object_name": "TIANMU-1 22",
        "meta_object_id": "2023-208D",
        "meta_epoch": "2025-12-19T21:12:52.451424",
        "meta_mean_motion": 15.27717875,
        "meta_eccentricity": 0.00027344,
        "meta_inclination": 97.4389,
        "meta_ra_of_asc_node": 104.9633,
        "meta_arg_of_pericenter": 249.1883,
        "meta_mean_anomaly": 110.9063,
        "meta_ephemeris_type": 0,
        "meta_classification_type": "U",
        "meta_norad_cat_id": 58663,
        "meta_element_set_no": 999,
        "meta_rev_at_epoch": 10992,
        "meta_bstar": 0.00022744321,
        "meta_mean_motion_dot": 6.085e-05,
        "meta_mean_motion_ddot": 0,
        "tle_line1": "1 58663U 23208D   25353.88394041  .00006085  00000+0  22744-3 0  9998",
        "tle_line2": "2 58663  97.4389 104.9633 0002734 249.1883 110.9063 15.27717875109928"
      },
      "geometry": {
        "type": "Point",
        "coordinates": [
          -78.9398171542123,
          -30.040310406483577
        ]
      }
    },
    {
      "type": "Feature",
      "properties": {
        "norad_id": 58700,
        "name": "TIANMU-1 15",
        "group": "weather",
        "lat": -71.05100462994527,
        "lon": -26.68694014481539,
        "alt_km": 495.5376524557796,
        "timestamp": "2025-12-20T07:33:50.444163+00:00",
        "meta_object_name": "TIANMU-1 15",
        "meta_object_id": "2024-004A",
        "meta_epoch": "2025-12-19T22:34:58.332288",
        "meta_mean_motion": 15.24495558,
        "meta_eccentricity": 0.0005943,
        "meta_inclination": 97.4621,
        "meta_ra_of_asc_node": 175.3833,
        "meta_arg_of_pericenter": 259.6208,
        "meta_mean_anomaly": 100.436,
        "meta_ephemeris_type": 0,
        "meta_classification_type": "U",
        "meta_norad_cat_id": 58700,
        "meta_element_set_no": 999,
        "meta_rev_at_epoch": 10844,
        "meta_bstar": 0.00019911926,
        "meta_mean_motion_dot": 4.824e-05,
        "meta_mean_motion_ddot": 0,
        "tle_line1": "1 58700U 24004A   25353.94095292  .00004824  00000+0  19912-3 0  9990",
        "tle_line2": "2 58700  97.4621 175.3833 0005943 259.6208 100.4360 15.24495558108443"
      },
      "geometry": {
        "type": "Point",
        "coordinates": [
          -26.68694014481539,
          -71.05100462994527
        ]
      }
    }
  ]
}